OBJECT_NAME,OBJECT_ID,EPOCH,MEAN_MOTION,ECCENTRICITY,INCLINATION,RA_OF_ASC_NODE,ARG_OF_PERICENTER,MEAN_ANOMALY,EPHEMERIS_TYPE,CLASSIFICATION_TYPE,NORAD_CAT_ID,ELEMENT_SET_NO,REV_AT_EPOCH,BSTAR,MEAN_MOTION_DOT,MEAN_MOTION_DDOT
STARLINK-3230,2022-001AU,2026-07-16T14:14:18.234240,15.29351517,.0000809,53.1602,317.1798,74.2660,285.8429,0,U,50845,999,24977,-.38858E-5,-.468E-5,0
STARLINK-3308,2022-001AV,2026-07-16T19:42:52.917984,15.31705012,.0001052,53.1613,315.5690,76.0978,284.0140,0,U,50846,999,24981,.44081E-4,.1003E-4,0
STARLINK-3315,2022-001AX,2026-07-16T20:00:01.999008,15.31798069,.0001463,53.1597,317.3089,61.0360,186.1998,0,U,50848,999,583,.25261E-2,.79101E-3,0
STARLINK-3311,2022-001AY,2026-07-16T13:54:37.118592,15.34387725,.0001092,53.1622,317.5255,71.0897,289.0224,0,U,50849,999,24976,.67584E-4,.1907E-4,0
STARLINK-3312,2022-001AZ,2026-07-16T14:51:25.336800,15.22554003,.0001277,53.1608,278.4284,58.9812,301.1310,0,U,50850,999,25085,.15881E-3,.3404E-4,0
STARLINK-3314,2022-001BA,2026-07-16T18:27:43.629408,15.33548245,.0001131,53.1614,316.7319,74.7052,285.4076,0,U,50851,999,24979,.21239E-4,.326E-5,0
STARLINK-3366,2022-005A,2026-07-16T14:57:49.149792,15.10178793,.0001205,53.1913,69.9833,122.4576,237.6533,0,U,51104,999,24834,.60525E-3,.9716E-4,0
STARLINK-3350,2022-005B,2026-07-15T21:19:09.587424,15.08829667,.0001319,53.1606,73.3491,94.1587,265.9555,0,U,51105,999,24823,.423E-4,.385E-5,0
STARLINK-3176,2022-005C,2026-07-15T00:07:17.889024,15.09002864,.00007182,53.1607,77.3178,71.4823,288.6246,0,U,51106,999,24809,-.20709028E-2,-.33242E-3,0
STARLINK-3362,2022-005E,2026-07-16T16:18:31.212288,15.08820791,.0001029,53.1590,69.7890,65.3013,294.8085,0,U,51108,999,24835,-.88051E-4,-.1688E-4,0
STARLINK-3358,2022-005F,2026-07-16T20:00:01.999008,15.10698024,.0001434,53.1585,68.9907,97.3223,310.7012,0,U,51109,999,583,-.19065E-2,-.32086E-3,0
STARLINK-3344,2022-005G,2026-07-16T16:02:35.223936,15.08831531,.0001761,53.1605,69.8183,95.7465,264.3728,0,U,51110,999,24835,-.12794E-4,-.492E-5,0
STARLINK-3173,2022-005H,2026-07-16T20:16:00.571584,15.09410085,.0001505,53.1601,69.0422,126.5135,233.5996,0,U,51111,999,24837,.42851E-2,.69669E-3,0
STARLINK-3374,2022-005J,2026-07-16T11:12:30.501216,15.08833721,.0001445,53.1607,70.7184,91.3686,268.7471,0,U,51112,999,24832,-.43497E-4,-.98E-5,0
STARLINK-3372,2022-005K,2026-07-16T15:46:41.737728,15.08832259,.0001426,53.1608,69.8887,90.2465,269.8690,0,U,51113,999,24834,-.46719E-4,-.1031E-4,0
STARLINK-3375,2022-005L,2026-07-16T20:00:01.999008,15.17633821,.0002038,53.1600,68.9371,72.1267,149.0881,0,U,51114,999,563,.84433E-3,.16921E-3,0
STARLINK-3397,2022-005M,2026-07-16T09:14:33.249120,15.08835583,.0001598,53.1603,71.1140,88.4450,271.6725,0,U,51115,999,24830,-.21823E-4,-.635E-5,0
STARLINK-3243,2022-005N,2026-07-15T22:22:44.879232,15.08834260,.00013813,53.1605,73.1461,90.9631,269.1519,0,U,51116,999,24823,-.19954909E-4,-.606E-5,0
STARLINK-3391,2022-005P,2026-07-15T21:29:44.710368,15.08833070,.0001773,53.1598,73.2022,88.8251,271.2944,0,U,51117,999,24823,-.61057E-5,-.385E-5,0
STARLINK-3394,2022-005Q,2026-07-16T15:41:23.791776,15.08835240,.0001534,53.1603,69.9053,97.4934,262.6231,0,U,51118,999,24834,.27872E-4,.155E-5,0
STARLINK-3398,2022-005S,2026-07-16T00:41:54.690144,15.08831311,.00015813,53.1605,72.7245,89.1736,270.9437,0,U,51120,999,24825,.61382827E-4,.689E-5,0
STARLINK-3399,2022-005T,2026-07-16T15:21:34.450848,15.08837990,.0001345,53.1602,69.9776,95.8270,264.2875,0,U,51121,999,24834,.71301E-4,.847E-5,0
STARLINK-3392,2022-005V,2026-07-15T21:24:27.724320,15.08827453,.0001451,53.1609,73.3325,98.4668,261.6488,0,U,51123,999,24823,.56176E-4,.606E-5,0
STARLINK-3389,2022-005W,2026-07-16T01:37:30.100800,15.08830548,.0001489,53.1599,82.5391,90.9155,269.2007,0,U,51124,999,24812,.31230951E-4,.209E-5,0
STARLINK-3387,2022-005X,2026-07-16T20:00:01.999008,15.30238522,.0000861,53.1597,77.3215,97.4786,1.4719,0,U,51125,999,583,.53803E-3,.15628E-3,0
STARLINK-3386,2022-005Y,2026-07-15T22:43:21.023904,15.31722840,.0001202,53.1610,79.7509,83.5554,276.5585,0,U,51126,999,24815,.11378E-3,.317E-4,0
STARLINK-3370,2022-005Z,2026-07-16T15:36:48.579264,15.31678565,.0001293,53.1600,76.3633,89.7289,270.3860,0,U,51127,999,24825,.16635E-3,.4797E-4,0
STARLINK-3400,2022-005AA,2026-07-16T08:57:19.994112,15.08829758,.0001437,53.1607,81.1689,96.4512,263.6643,0,U,51128,999,24815,.4262E-4,.39E-5,0
STARLINK-3396,2022-005AB,2026-07-16T15:57:20.803968,15.08833774,.0001441,53.1604,79.8552,91.9463,268.1694,0,U,51129,999,24820,.18726E-5,-.258E-5,0
STARLINK-3395,2022-005AC,2026-07-16T15:34:46.935840,15.08823548,.0001362,53.1607,79.9278,92.6833,267.4314,0,U,51130,999,24819,.84763E-4,.1061E-4,0
