STARLINK-3230           
1 50845U 22001AU  26197.59326660 -.00000468  00000+0 -38858-5 0  9995
2 50845  53.1602 317.1798 0000809  74.2660 285.8429 15.29351517249775
STARLINK-3308           
1 50846U 22001AV  26197.82144581  .00001003  00000+0  44081-4 0  9990
2 50846  53.1613 315.5690 0001052  76.0978 284.0140 15.31705012249816
STARLINK-3315           
1 50848U 22001AX  26197.83335647  .00079101  00000+0  25261-2 0  9999
2 50848  53.1597 317.3089 0001463  61.0360 186.1998 15.31798069  5835
STARLINK-3311           
1 50849U 22001AY  26197.57959628  .00001907  00000+0  67584-4 0  9997
2 50849  53.1622 317.5255 0001092  71.0897 289.0224 15.34387725249769
STARLINK-3312           
1 50850U 22001AZ  26197.61904325  .00003404  00000+0  15881-3 0  9994
2 50850  53.1608 278.4284 0001277  58.9812 301.1310 15.22554003250854
STARLINK-3314           
1 50851U 22001BA  26197.76925497  .00000326  00000+0  21239-4 0  9999
2 50851  53.1614 316.7319 0001131  74.7052 285.4076 15.33548245249795
STARLINK-3366           
1 51104U 22005A   26197.62348553  .00009716  00000+0  60525-3 0  9994
2 51104  53.1913  69.9833 0001205 122.4576 237.6533 15.10178793248340
STARLINK-3350           
1 51105U 22005B   26196.88830541  .00000385  00000+0  42300-4 0  9990
2 51105  53.1606  73.3491 0001319  94.1587 265.9555 15.08829667248238
STARLINK-3176           
1 51106U 22005C   26196.00506816 -.00033242  00000+0 -20709-2 0  9997
2 51106  53.1607  77.3178 0000718  71.4823 288.6246 15.09002864248095
STARLINK-3362           
1 51108U 22005E   26197.67952792 -.00001688  00000+0 -88051-4 0  9996
2 51108  53.1590  69.7890 0001029  65.3013 294.8085 15.08820791248358
STARLINK-3358           
1 51109U 22005F   26197.83335647 -.00032086  00000+0 -19065-2 0  9992
2 51109  53.1585  68.9907 0001434  97.3223 310.7012 15.10698024  5838
STARLINK-3344           
1 51110U 22005G   26197.66846324 -.00000492  00000+0 -12794-4 0  9994
2 51110  53.1605  69.8183 0001761  95.7465 264.3728 15.08831531248355
STARLINK-3173           
1 51111U 22005H   26197.84445106  .00069669  00000+0  42851-2 0  9992
2 51111  53.1601  69.0422 0001505 126.5135 233.5996 15.09410085248378
STARLINK-3374           
1 51112U 22005J   26197.46701969 -.00000980  00000+0 -43497-4 0  9995
2 51112  53.1607  70.7184 0001445  91.3686 268.7471 15.08833721248320
STARLINK-3372           
1 51113U 22005K   26197.65742752 -.00001031  00000+0 -46719-4 0  9990
2 51113  53.1608  69.8887 0001426  90.2465 269.8690 15.08832259248345
STARLINK-3375           
1 51114U 22005L   26197.83335647  .00016921  00000+0  84433-3 0  9998
2 51114  53.1600  68.9371 0002038  72.1267 149.0881 15.17633821  5633
STARLINK-3397           
1 51115U 22005M   26197.38510705 -.00000635  00000+0 -21823-4 0  9991
2 51115  53.1603  71.1140 0001598  88.4450 271.6725 15.08835583248302
STARLINK-3243           
1 51116U 22005N   26196.93246388 -.00000606  00000+0 -19955-4 0  9996
2 51116  53.1605  73.1461 0001381  90.9631 269.1519 15.08834260248238
STARLINK-3391           
1 51117U 22005P   26196.89565637 -.00000385  00000+0 -61057-5 0  9998
2 51117  53.1598  73.2022 0001773  88.8251 271.2944 15.08833070248237
STARLINK-3394           
1 51118U 22005Q   26197.65374759  .00000155  00000+0  27872-4 0  9996
2 51118  53.1603  69.9053 0001534  97.4934 262.6231 15.08835240248346
STARLINK-3398           
1 51120U 22005S   26197.02910521  .00000689  00000+0  61383-4 0  9990
2 51120  53.1605  72.7245 0001581  89.1736 270.9437 15.08831311248251
STARLINK-3399           
1 51121U 22005T   26197.63998207  .00000847  00000+0  71301-4 0  9992
2 51121  53.1602  69.9776 0001345  95.8270 264.2875 15.08837990248342
STARLINK-3392           
1 51123U 22005V   26196.89198755  .00000606  00000+0  56176-4 0  9997
2 51123  53.1609  73.3325 0001451  98.4668 261.6488 15.08827453248230
STARLINK-3389           
1 51124U 22005W   26197.06770950  .00000209  00000+0  31231-4 0  9995
2 51124  53.1599  82.5391 0001489  90.9155 269.2007 15.08830548248121
STARLINK-3387           
1 51125U 22005X   26197.83335647  .00015628  00000+0  53803-3 0  9990
2 51125  53.1597  77.3215 0000861  97.4786   1.4719 15.30238522  5836
STARLINK-3386           
1 51126U 22005Y   26196.94677111  .00003170  00000+0  11378-3 0  9997
2 51126  53.1610  79.7509 0001202  83.5554 276.5585 15.31722840248156
STARLINK-3370           
1 51127U 22005Z   26197.65056226  .00004797  00000+0  16635-3 0  9992
2 51127  53.1600  76.3633 0001293  89.7289 270.3860 15.31678565248253
STARLINK-3400           
1 51128U 22005AA  26197.37314808  .00000390  00000+0  42620-4 0  9994
2 51128  53.1607  81.1689 0001437  96.4512 263.6643 15.08829758248159
STARLINK-3396           
1 51129U 22005AB  26197.66482412 -.00000258  00000+0  18726-5 0  9999
2 51129  53.1604  79.8552 0001441  91.9463 268.1694 15.08833774248205
STARLINK-3395           
1 51130U 22005AC  26197.64915435  .00001061  00000+0  84763-4 0  9990
2 51130  53.1607  79.9278 0001362  92.6833 267.4314 15.08823548248194
